[{"OBJECT_NAME":"LKW-2","OBJECT_ID":"2017-084A","EPOCH":"2026-03-09T23:47:21.969600","MEAN_MOTION":15.24935967,"ECCENTRICITY":0.00013207,"INCLINATION":97.1334,"RA_OF_ASC_NODE":113.4519,"ARG_OF_PERICENTER":172.3175,"MEAN_ANOMALY":187.8084,"EPHEMERIS_TYPE":0,"CLASSIFICATION_TYPE":"U","NORAD_CAT_ID":43080,"ELEMENT_SET_NO":999,"REV_AT_EPOCH":45656,"BSTAR":0.00032202263,"MEAN_MOTION_DOT":7.955e-5,"MEAN_MOTION_DDOT":0},{"OBJECT_NAME":"HERMES-5","OBJECT_ID":"2025-052BQ","EPOCH":"2026-03-09T22:33:51.245280","MEAN_MOTION":15.26210393,"ECCENTRICITY":0.0006071,"INCLINATION":97.4082,"RA_OF_ASC_NODE":324.1247,"ARG_OF_PERICENTER":124.4334,"MEAN_ANOMALY":235.7479,"EPHEMERIS_TYPE":0,"CLASSIFICATION_TYPE":"U","NORAD_CAT_ID":63834,"ELEMENT_SET_NO":999,"REV_AT_EPOCH":5480,"BSTAR":0.00068450239,"MEAN_MOTION_DOT":0.00017673,"MEAN_MOTION_DDOT":0}]
